{
  "type": "FeatureCollection",
  "name": "Baignades des Pyrénées centrales",
  "features": [
    {
      "type": "Feature",
      "properties": {
        "id": "acces-ger-lacus",
        "nom": "Accès au Ger près de Laçus",
        "beaute": 2,
        "fraicheur": 3,
        "tranquillite": 3,
        "baignabilite": 2,
        "facilite_acces": 4,
        "compatibilite_enfants": 4,
        "commentaire": "Se garer au point 42.9393, 0.8093 (sur la route du pont de l'Oule à Laçus, faire 1,5km et se garer à droite dans un virage). On descend en 100m à une rivière, où un espace assez grand, plat et ombragé est accessible. On peut se tremper les pieds et même se baigner dans quelques vasques, l'eau coule pas mal. Il y a des traces d'occupation par des campeurs, mais c'est assez grand pour ne pas se marcher sur les pieds si on est plusieurs."
      },
      "geometry": {
        "type": "Point",
        "coordinates": [
          0.8082,
          42.9402
        ]
      }
    },
    {
      "type": "Feature",
      "properties": {
        "id": "acces-ger-sengouagnet",
        "nom": "Accès au Ger à Sengouagnet",
        "beaute": 2,
        "fraicheur": 3,
        "tranquillite": 3,
        "baignabilite": 2,
        "facilite_acces": 2,
        "compatibilite_enfants": 2,
        "commentaire": "Se garer juste avant le hameau du bout du pont à Sengouagnet, puis prendre le pont et le chemin partant à droite, qui longe la rivière. On peut descendre à plusieurs endroits, mais il y a peu d'espace, pas vraiment de grande berge. Tout au fond, en revanche, il est plus aisé d'accéder à la rivière et la berge s'élargit, mais l'accès n'est pas évident, il y a des fils autour."
      },
      "geometry": {
        "type": "Point",
        "coordinates": [
          0.79202,
          42.9818
        ]
      }
    },
    {
      "type": "Feature",
      "properties": {
        "id": "acces-ourse-esbareich",
        "nom": "Accès à l’Ourse près d’Esbareich",
        "beaute": 2,
        "fraicheur": 4,
        "tranquillite": 4,
        "baignabilite": 2,
        "facilite_acces": 1,
        "compatibilite_enfants": 2,
        "commentaire": "Si l'on se gare vers 42.9455, 0.5664, on peut trouver des sentes qui descendent vers l'ourse de Sost. C'est à peu près à ce niveau que se trouve une grande vasque où l'on peut vraiment se baigner, dans un beau paysage boisé franchement désert. Ce n'est pas évident à trouver en partant de là toutefois.\nSinon, pour faire la balade de rivière, on peut se garer à 42.9529, 0.5673, à la sortie de Mauléon-Barousse, et de là rejoindre facilement la rivière, puis la remonter. Joli mais un peu ardu par endroits."
      },
      "geometry": {
        "type": "Point",
        "coordinates": [
          0.5651,
          42.9455
        ]
      }
    },
    {
      "type": "Feature",
      "properties": {
        "id": "acces-ourse-mairie-izaourt",
        "nom": "Accès à l’Ourse derrière la mairie d’Izaourt",
        "beaute": 1,
        "fraicheur": 2,
        "tranquillite": 3,
        "baignabilite": 1,
        "facilite_acces": 4,
        "compatibilite_enfants": 4,
        "commentaire": "Petit coin de rivière derrière la mairie d'Izaourt, toujours vu sans personne (mais il y a une vieille pénible qui habite juste derrière). Il y a un saule pour faire de l'ombre et on peut se tremper les pieds, en revanche pas vraiment se baigner davantage."
      },
      "geometry": {
        "type": "Point",
        "coordinates": [
          0.60112,
          43.0165
        ]
      }
    },
    {
      "type": "Feature",
      "properties": {
        "id": "bord-garonne-seilhan",
        "nom": "Bord de Garonne depuis Seilhan",
        "beaute": 2,
        "fraicheur": 2,
        "tranquillite": 3,
        "baignabilite": 2,
        "facilite_acces": 3,
        "compatibilite_enfants": 2,
        "commentaire": "Se garer au bout d'un chemin à 43.0605, 0.5641. De là, on descend à pied par un chemin assez raide mais court, et on arrive à de grandes prairies longeant la Garonne. En continuant un peu, on trouve des berges caillouteuses et ombragées, mais il y a aussi souvent des vaches. La Garonne est baignable mais souvent un peu haute, avec des courants, à cet endroit."
      },
      "geometry": {
        "type": "Point",
        "coordinates": [
          0.56188,
          43.05886
        ]
      }
    },
    {
      "type": "Feature",
      "properties": {
        "id": "bord-riviere-augirein",
        "nom": "Bord de rivière à Augirein",
        "beaute": 2,
        "fraicheur": 2,
        "tranquillite": 3,
        "baignabilite": 1,
        "facilite_acces": 2,
        "compatibilite_enfants": 2,
        "commentaire": "Un bord de rivière accessible au bord de la route du Portet-d'Aspet. Ce n'est pas dingue, mais on peut facilement s'y tremper les pieds, et remonter facilement et agréablement la rivière ombragée."
      },
      "geometry": {
        "type": "Point",
        "coordinates": [
          0.9157,
          42.9298
        ]
      }
    },
    {
      "type": "Feature",
      "properties": {
        "id": "confluent-bouigane-lez-audressein",
        "nom": "Confluent Bouigane-Lez à Audressein",
        "beaute": 2,
        "fraicheur": 2,
        "tranquillite": 2,
        "baignabilite": 3,
        "facilite_acces": 4,
        "compatibilite_enfants": 4,
        "commentaire": "Joli coin de verdure à Audressein, avec pas mal d'ombre. Curieusement pas tant de monde alors que c'est vraiment joli et agréable. Baignade marquée comme interdite mais on s'est baignés à côté du maire l'été 2026 et cela ne semblait lui poser aucun problème. Le confluent est pratique : eau très basse dans la Bouigane pour tremper les pieds et jouer en toute sécurité pour les enfants, eau plus haute avec des courants dans le Lez pour s'immerger vraiment et nager pour les adultes."
      },
      "geometry": {
        "type": "Point",
        "coordinates": [
          1.023915,
          42.93005
        ]
      }
    },
    {
      "type": "Feature",
      "properties": {
        "id": "gouffre-de-la-saoule",
        "nom": "Gouffre de la Saoule",
        "beaute": 4,
        "fraicheur": 4,
        "tranquillite": 2,
        "baignabilite": 3,
        "facilite_acces": 3,
        "compatibilite_enfants": 3,
        "commentaire": "Très bel endroit, un peu fréquenté en été, pas tant que ça mais si petit qu'on se sent vite à l'étroit. On peut passer sous l'arche à des niveaux très différents d'eau (normalement bien haute, mais lors du caniculaire été 2026 on passait à pied), puis accéder à une cascade devant lequel se trouve un laquet, dans le gouffre proprement dit, magnifique. En contrebas de l'arche, le lit de la rivière continue ou peut être asséché en été. C'est très beau aussi, et on peut se balader de rocher en rocher."
      },
      "geometry": {
        "type": "Point",
        "coordinates": [
          0.55896,
          42.95654
        ]
      }
    },
    {
      "type": "Feature",
      "properties": {
        "id": "lac-de-bareilles",
        "nom": "Lac de Bareilles",
        "beaute": 4,
        "fraicheur": 2,
        "tranquillite": 1,
        "baignabilite": 2,
        "facilite_acces": 3,
        "compatibilite_enfants": 2,
        "commentaire": "Joli lac par lequel on accède par une balade raisonnable depuis le port de Balès. Pas mal de monde en été. Baignade théoriquement interdite mais jouable, ceci dit parfois le garde ONF tourne."
      },
      "geometry": {
        "type": "Point",
        "coordinates": [
          0.4601,
          42.8601
        ]
      }
    },
    {
      "type": "Feature",
      "properties": {
        "id": "lac-de-gery",
        "nom": "Lac de Géry",
        "beaute": 1,
        "fraicheur": 1,
        "tranquillite": 1,
        "baignabilite": 4,
        "facilite_acces": 4,
        "compatibilite_enfants": 4,
        "commentaire": "Aucune ombre et pas très beau de mon point de vue (sauf pour la vue sur le pic du Gar)."
      },
      "geometry": {
        "type": "Point",
        "coordinates": [
          0.67583,
          42.92411
        ]
      }
    },
    {
      "type": "Feature",
      "properties": {
        "id": "lac-de-saint-pe",
        "nom": "Lac de Saint-Pé-d’Ardet",
        "beaute": 3,
        "fraicheur": 2,
        "tranquillite": 1,
        "baignabilite": 4,
        "facilite_acces": 4,
        "compatibilite_enfants": 4,
        "commentaire": "Est-il besoin de faire un commentaire ?"
      },
      "geometry": {
        "type": "Point",
        "coordinates": [
          0.6726339,
          42.9879461
        ]
      }
    },
    {
      "type": "Feature",
      "properties": {
        "id": "lac-de-touille",
        "nom": "Lac de Touille",
        "beaute": 2,
        "fraicheur": 2,
        "tranquillite": 1,
        "baignabilite": 4,
        "facilite_acces": 4,
        "compatibilite_enfants": 4,
        "commentaire": "Joli lac dont on peut faire le tour pour une petite balade. Grande zone ombragée près du parking. Baignade franchement agréable et des zones à faible profondeur pour les enfants. Très pratiquement placé à mi-chemin entre Saint-Pé et Saint-Girons."
      },
      "geometry": {
        "type": "Point",
        "coordinates": [
          0.95971,
          43.083455
        ]
      }
    },
    {
      "type": "Feature",
      "properties": {
        "id": "lacs-de-venasque",
        "nom": "Lacs de Vénasque",
        "beaute": 4,
        "fraicheur": 3,
        "tranquillite": 1,
        "baignabilite": 2,
        "facilite_acces": 1,
        "compatibilite_enfants": 1,
        "commentaire": "Beaux lacs d'altitude, mais dans un coin bien fréquenté en été. On peut se baigner, et c'est moins frais qu'on ne pourrait le croire. Mais c'est sans doute interdit et il y a un refuge juste à côté..."
      },
      "geometry": {
        "type": "Point",
        "coordinates": [
          0.6386,
          42.6973
        ]
      }
    },
    {
      "type": "Feature",
      "properties": {
        "id": "ourse-a-sarp",
        "nom": "Portion d’Ourse à Sarp",
        "beaute": 2,
        "fraicheur": 3,
        "tranquillite": 3,
        "baignabilite": 3,
        "facilite_acces": 4,
        "compatibilite_enfants": 4,
        "commentaire": "Endroit très facile d'accès en se garant à 43.0138, 0.5912 et en suivant le sentier qui mène en 200m à un bord d'Ourse légèrement aménagé. Il y a une grande vasque qui permet de se baigner. On peut remonter la rivière en amont ou en aval et c'est joli des deux côtés. On peut aussi se poser sur la rive opposée, plus ombragée."
      },
      "geometry": {
        "type": "Point",
        "coordinates": [
          0.59227,
          43.01405
        ]
      }
    },
    {
      "type": "Feature",
      "properties": {
        "id": "passerelle-des-illeres",
        "nom": "Passerelle des Illères",
        "beaute": 3,
        "fraicheur": 4,
        "tranquillite": 4,
        "baignabilite": 2,
        "facilite_acces": 2,
        "compatibilite_enfants": 3,
        "commentaire": "Il faut se garer sur la route de Labach de Melles à 42.8733, 0.7804 et descendre à pied en prenant le sentier assez raide et pas toujours très net. On arrive à une passerelle qui devance un petit barrage hydroélectrique. En amont, c'est très bien : il y a une berge caillouteuse immédiatement et plus en amont, de nombreux espaces plats qui bordent la rivière.\nToutefois, ce lieu est sans doute à réserver aux moments d'étiage : c'était assez idyllique mi-août 2026, après un été très peu pluvieux. Quand il y a du débit, c'est sans doute impraticable."
      },
      "geometry": {
        "type": "Point",
        "coordinates": [
          0.7817,
          42.8719
        ]
      }
    },
    {
      "type": "Feature",
      "properties": {
        "id": "plan-des-grauers",
        "nom": "Plan des Grauers",
        "beaute": 4,
        "fraicheur": 3,
        "tranquillite": 4,
        "baignabilite": 2,
        "facilite_acces": 1,
        "compatibilite_enfants": 1,
        "commentaire": "La balade du plan des Grauers est en forêt, un peu raide mais assez courte. On arrive au plan des Grauers, joli plateau d'altitude traversé par un ruisseau. Le paysage est très beau et surtout très sauvage, il n'y a personne même en plein été.\nLe ruisseau est accessible, et une belle vasque se trouve au moment où le sentier le rejoint, sur la droite. Ce n'est pas immense, mais on peut bien s'immerger.\nBeau lieu de pique-nique ombragé en allant tout au bout du plateau, au-dessus de la passerelle à gauche."
      },
      "geometry": {
        "type": "Point",
        "coordinates": [
          0.83987,
          42.81903
        ]
      }
    },
    {
      "type": "Feature",
      "properties": {
        "id": "plan-eau-cabanac-cazaux",
        "nom": "Aire du Job de Cabanac-Cazaux",
        "beaute": 2,
        "fraicheur": 3,
        "tranquillite": 2,
        "baignabilite": 3,
        "facilite_acces": 4,
        "compatibilite_enfants": 4,
        "commentaire": "Pas mal d'eau quand ça coule. En période de sécheresse, se baigner vraiment devient impossible.\n\nOn peut longer la rivière les pieds dans l'eau vers le nord ou vers le sud, et des deux côtés c'est beau, sauvage et assez facile d'accès (même en passant le barrage au nord).\n\nGénéralement peu fréquenté alors que très facile d'accès. Beaucoup d'ombre."
      },
      "geometry": {
        "type": "Point",
        "coordinates": [
          0.741198,
          43.033508
        ]
      }
    },
    {
      "type": "Feature",
      "properties": {
        "id": "pont-romain-de-generest",
        "nom": "Pont romain de Générest",
        "beaute": 2,
        "fraicheur": 3,
        "tranquillite": 4,
        "baignabilite": 3,
        "facilite_acces": 2,
        "compatibilite_enfants": 2,
        "commentaire": "Le grandiose pont romain n'est pas mal, mais le lieu réellement baignable est plus en aval. Il faut se garer sur la route et descendre dans le champ, et viser le coin en diagonale où la forêt commence, au niveau du ruisseau. En le continuant par là, on arrive en 5mn à de grandes vasques baignables et jolies."
      },
      "geometry": {
        "type": "Point",
        "coordinates": [
          0.5214,
          43.0479
        ]
      }
    },
    {
      "type": "Feature",
      "properties": {
        "id": "portion-sauvage-job-izaut-juzet",
        "nom": "Portion sauvage et rétrécie du Job entre Izaut et Juzet",
        "beaute": 4,
        "fraicheur": 4,
        "tranquillite": 4,
        "baignabilite": 3,
        "facilite_acces": 1,
        "compatibilite_enfants": 1,
        "commentaire": "Très bel endroit du Job, mais pas facile d'accès. Il faut soit descendre via un joli mais peu tracé sentier depuis la route Cazaunous-Arbon, en suivant l'affluent du Job, puis en prenant à gauche au bout ; soit remonter depuis la cascade de la Bouche (pas testé).\nA cet endroit, al rivière se resserre entre deux parois sur une dizaine de mètres, si bien qu'il faut nager. C'est très joli et étonnant. Toute la portion de rivière est très sauvage, et plutôt plate donc praticable."
      },
      "geometry": {
        "type": "Point",
        "coordinates": [
          0.75067,
          42.9931
        ]
      }
    },
    {
      "type": "Feature",
      "properties": {
        "id": "riviere-marignac",
        "nom": "Rivière de Saint-Martin à Marignac",
        "beaute": 2,
        "fraicheur": 3,
        "tranquillite": 3,
        "baignabilite": 3,
        "facilite_acces": 3,
        "compatibilite_enfants": 4,
        "commentaire": "Se garer sur la piste et non aux tables de pique-nique car le virage est difficile à passer en voiture. Depuis la passerelle en métal, plusieurs vasques pour se baigner en contrehaut, donc une assez vaste. Très frais. Malheureusement, il y a des taons l'été. Spot d'ail des ours au printemps."
      },
      "geometry": {
        "type": "Point",
        "coordinates": [
          0.66534,
          42.89937
        ]
      }
    },
    {
      "type": "Feature",
      "properties": {
        "id": "ru-d-enfer",
        "nom": "Ru d'enfer",
        "beaute": 4,
        "fraicheur": 3,
        "tranquillite": 2,
        "baignabilite": 1,
        "facilite_acces": 1,
        "compatibilite_enfants": 1,
        "commentaire": "Au Ru d'enfer, on peut se tremper les pieds dans l'eau glaciale qui arrive de la montagne. Lieu toutefois franchement fréquenté à la belle saison. Un bon endroit pour se poser et pique-niquer est l'île entre les deux bras de rivière, assez cachée et ombragée."
      },
      "geometry": {
        "type": "Point",
        "coordinates": [
          0.5458,
          42.7255
        ]
      }
    },
    {
      "type": "Feature",
      "properties": {
        "id": "ruisseau-val-de-toran",
        "nom": "Ruisseau du val de Toran",
        "beaute": 3,
        "fraicheur": 4,
        "tranquillite": 4,
        "baignabilite": 2,
        "facilite_acces": 2,
        "compatibilite_enfants": 1,
        "commentaire": "Plusieurs endroits du val de Toran sont accessibles en voiture pour se baigner, mais celui-ci est le meilleur que je connaisse. En se garant à 42.8251, 0.7772, on peut passer le pont puis redescendre le ruisseau. Là, on peut faire une remontée de ruisseau pas évidente, mais jolie et amusante."
      },
      "geometry": {
        "type": "Point",
        "coordinates": [
          0.7745,
          42.8248
        ]
      }
    },
    {
      "type": "Feature",
      "properties": {
        "id": "vallee-du-riberot",
        "nom": "Vallée du Riberot",
        "beaute": 3,
        "fraicheur": 4,
        "tranquillite": 2,
        "baignabilite": 2,
        "facilite_acces": 3,
        "compatibilite_enfants": 3,
        "commentaire": "La vallée du Riberot est très fréquentée, mais on peut un peu éviter la foule en prenant le sentier de la cascade de Nérech pendant une quinzaine de minutes. Au niveau des passerelles, il y a un très grand espace où le Riberot se scinde en plusieurs bras, et où l'on peut facilement se tremper les pieds et trouver de l'ombre et quelques vasques."
      },
      "geometry": {
        "type": "Point",
        "coordinates": [
          1.04,
          42.8241
        ]
      }
    },
    {
      "type": "Feature",
      "properties": {
        "id": "vasque-sous-route-cazaunous-arbon",
        "nom": "Vasque sous la route Cazaunous-Arbon",
        "beaute": 2,
        "fraicheur": 3,
        "tranquillite": 4,
        "baignabilite": 2,
        "facilite_acces": 2,
        "compatibilite_enfants": 2,
        "commentaire": "En se garant à l'endroit de la route Cazaunous-Arbon où la route traverse la rivière (plusieurs places), remonter la route côté Cazaunous, puis prendre un sentier qui descend nettement à gauche. Il mène en 5mn à une belle vasque dans laquelle coule une cascade. Le lieu est sauvage et bien joli. A réserver aux moments où les ruisseaux coulent bien, sinon ce sera à sec.\nOn peut ensuite descendre l'affluent et rejoindre le Job par un sentier curieux et joli, mais peu évident."
      },
      "geometry": {
        "type": "Point",
        "coordinates": [
          0.7426,
          42.9938
        ]
      }
    }
  ]
}